NORAD_CAT_ID,OBJECT_NAME,OBJECT_TYPE,EPOCH,MEAN_MOTION,ECCENTRICITY,INCLINATION,RA_OF_ASC_NODE,ARG_OF_PERICENTER,MEAN_ANOMALY,BSTAR,MEAN_MOTION_DOT,MEAN_MOTION_DDOT,TLE_LINE0,TLE_LINE1,TLE_LINE2,SEMIMAJOR_AXIS,PERIOD,APOGEE,PERIGEE,DECAYED
52468.0,STARLINK-3864,PAYLOAD,2023-02-12 09:42:37,15.08840634,0.000161,53.2173,52.7755,64.8891,295.2268,0.00011737,1.58e-05,0.0,0 STARLINK-3864,1 52468U 22049T   23043.40459902  .00001580  00000-0  11737-3 0  9993,2 52468  53.2173  52.7755 0001610  64.8891 295.2268 15.08840634 42978,6917.878,95.438,540.857,538.63,0.0
52468.0,STARLINK-3864,PAYLOAD,2023-02-13 09:33:24,15.08847322,0.0001425,53.2171,48.3137,77.3825,282.7326,0.00011485,1.541e-05,0.0,0 STARLINK-3864,1 52468U 22049T   23044.39819591  .00001541  00000-0  11485-3 0  9993,2 52468  53.2171  48.3137 0001425  77.3825 282.7326 15.08847322 43283,6917.858,95.437,540.709,538.737,0.0
52468.0,STARLINK-3864,PAYLOAD,2023-02-13 17:30:20,15.0884284,0.0001222,53.2161,46.8233,68.565,291.5473,-1.3767e-05,-5.07e-06,0.0,0 STARLINK-3864,1 52468U 22049T   23044.72939866 -.00000507  00000-0 -13767-4 0  9997,2 52468  53.2161  46.8233 0001222  68.5650 291.5473 15.08842840 43332,6917.872,95.437,540.582,538.891,0.0
52468.0,STARLINK-3864,PAYLOAD,2023-02-14 10:59:34,15.08848794,0.0001501,53.2174,43.554,73.5938,286.5219,9.9696e-05,1.299e-05,0.0,0 STARLINK-3864,1 52468U 22049T   23045.45803530  .00001299  00000-0  99696-4 0  9998,2 52468  53.2174  43.5540 0001501  73.5938 286.5219 15.08848794 43286,6917.854,95.437,540.757,538.68,0.0
52468.0,STARLINK-3864,PAYLOAD,2023-02-14 17:21:07,15.08841185,0.0001157,53.2174,42.3628,91.6198,268.4927,-5.5014e-05,-1.163e-05,0.0,0 STARLINK-3864,1 52468U 22049T   23045.72300152 -.00001163  00000-0 -55014-4 0  9998,2 52468  53.2174  42.3628 0001157  91.6198 268.4927 15.08841185 43323,6917.877,95.437,540.542,538.941,0.0
52468.0,STARLINK-3864,PAYLOAD,2023-02-15 06:04:11,15.0884958,0.0001235,53.2171,39.982,110.3523,249.7602,4.5453e-05,4.36e-06,0.0,0 STARLINK-3864,1 52468U 22049T   23046.25291555  .00000436  00000-0  45453-4 0  9999,2 52468  53.2171  39.9820 0001235 110.3523 249.7602 15.08849580 43569,6917.851,95.437,540.57,538.862,0.0
52468.0,STARLINK-3864,PAYLOAD,2023-02-15 10:50:20,15.08860346,0.0001184,53.2178,39.0918,102.7354,257.3771,0.00013484,1.86e-05,0.0,0 STARLINK-3864,1 52468U 22049T   23046.45162503  .00001860  00000-0  13484-3 0  9991,2 52468  53.2178  39.0918 0001184 102.7354 257.3771 15.08860346 43593,6917.818,95.436,540.502,538.864,0.0
52468.0,STARLINK-3864,PAYLOAD,2023-02-16 05:54:57,15.08863226,0.0001545,53.216,35.525,81.9391,278.1776,0.00020883,3.039e-05,0.0,0 STARLINK-3864,1 52468U 22049T   23047.24650217  .00003039  00000-0  20883-3 0  9994,2 52468  53.2160  35.5250 0001545  81.9391 278.1776 15.08863226 43714,6917.809,95.436,540.743,538.606,0.0
52468.0,STARLINK-3864,PAYLOAD,2023-02-16 10:41:06,15.08872532,0.0001446,53.2174,34.6315,86.0736,274.0422,0.00025288,3.742e-05,0.0,0 STARLINK-3864,1 52468U 22049T   23047.44521165  .00003742  00000-0  25288-3 0  9990,2 52468  53.2174  34.6315 0001446  86.0736 274.0422 15.08872532 43746,6917.781,95.435,540.646,538.646,0.0
52468.0,STARLINK-3864,PAYLOAD,2023-02-17 04:10:24,15.08817849,0.0001183,53.2172,31.3645,84.0287,276.084,-0.00023003,-3.945e-05,0.0,0 STARLINK-3864,1 52468U 22049T   23048.17389105 -.00003945  00000-0 -23003-3 0  9997,2 52468  53.2172  31.3645 0001183  84.0287 276.0840 15.08817849 43859,6917.948,95.439,540.631,538.995,0.0
52468.0,STARLINK-3864,PAYLOAD,2023-02-17 05:45:46,15.08831231,0.0001339,53.2172,31.0642,114.9242,245.1889,-0.00021426,-3.695e-05,0.0,0 STARLINK-3864,1 52468U 22049T   23048.24012360 -.00003695  00000-0 -21426-3 0  9990,2 52468  53.2172  31.0642 0001339 114.9242 245.1889 15.08831231 43862,6917.907,95.438,540.699,538.846,0.0
52468.0,STARLINK-3864,PAYLOAD,2023-02-17 15:18:05,15.08832472,0.0001193,53.2168,29.2817,99.4258,260.6869,-0.00015712,-2.787e-05,0.0,0 STARLINK-3864,1 52468U 22049T   23048.63756498 -.00002787  00000-0 -15712-3 0  9992,2 52468  53.2168  29.2817 0001193  99.4258 260.6869 15.08832472 43769,6917.903,95.438,540.594,538.943,0.0
52468.0,STARLINK-3864,PAYLOAD,2023-02-18 08:47:20,15.08834394,0.0001236,53.2183,26.0104,99.7138,260.3994,-6.0478e-05,-1.25e-05,0.0,0 STARLINK-3864,1 52468U 22049T   23049.36621084 -.00001250  00000-0 -60478-4 0  9999,2 52468  53.2183  26.0104 0001236  99.7138 260.3994 15.08834394 44030,6917.898,95.438,540.618,538.907,0.0
52468.0,STARLINK-3864,PAYLOAD,2023-02-18 15:08:52,15.08841152,0.0001039,53.2176,24.8189,87.2556,272.8555,-5.9742e-06,-3.83e-06,0.0,0 STARLINK-3864,1 52468U 22049T   23049.63116626 -.00000383  00000-0 -59742-5 0  9999,2 52468  53.2176  24.8189 0001039  87.2556 272.8555 15.08841152 44073,6917.877,95.437,540.461,539.023,0.0
52468.0,STARLINK-3864,PAYLOAD,2023-02-19 10:13:29,15.08885245,7.7e-05,53.2158,21.2496,91.3773,268.7307,0.0013144,0.00020719,0.0,0 STARLINK-3864,1 52468U 22049T   23050.42603837  .00020719  00000-0  13144-2 0  9999,2 52468  53.2158  21.2496 0000770  91.3773 268.7307 15.08885245 44039,6917.742,95.435,540.14,539.074,0.0
52468.0,STARLINK-3864,PAYLOAD,2023-02-20 06:53:30,15.08853948,0.0001057,53.2159,17.3847,79.843,280.2682,0.0015143,0.00023903,0.0,0 STARLINK-3864,1 52468U 22049T   23051.28716306  .00023903  00000-0  15143-2 0  9999,2 52468  53.2159  17.3847 0001057  79.8430 280.2682 15.08853948 44328,6917.838,95.437,540.434,538.972,0.0
52468.0,STARLINK-3864,PAYLOAD,2023-02-20 10:04:16,15.08862009,0.0001076,53.2159,16.7899,80.5541,279.5573,0.0016671,0.00026359,0.0,0 STARLINK-3864,1 52468U 22049T   23051.41964120  .00026359  00000-0  16671-2 0  9998,2 52468  53.2159  16.7899 0001076  80.5541 279.5573 15.08862009 44183,6917.813,95.436,540.422,538.934,0.0
52468.0,STARLINK-3864,PAYLOAD,2023-02-20 14:50:26,15.08841714,4.58e-05,53.2161,15.8965,238.0257,122.0691,0.00023265,3.417e-05,0.0,0 STARLINK-3864,1 52468U 22049T   23051.61836171  .00003417  00000-0  23265-3 0  9992,2 52468  53.2161  15.8965 0000458 238.0257 122.0691 15.08841714 44371,6917.875,95.437,540.057,539.423,0.0
52468.0,STARLINK-3864,PAYLOAD,2023-02-21 03:33:33,15.088168,0.0001137,53.2158,13.5187,100.9424,259.1697,0.0014351,0.00022611,0.0,0 STARLINK-3864,1 52468U 22049T   23052.14830142  .00022611  00000-0  14351-2 0  9995,2 52468  53.2158  13.5187 0001137 100.9424 259.1697 15.08816800 44451,6917.951,95.439,540.603,539.03,0.0
52468.0,STARLINK-3864,PAYLOAD,2023-02-21 06:44:19,15.08816272,0.0001958,53.2159,12.9239,90.5812,269.5404,0.0012339,0.00019391,0.0,0 STARLINK-3864,1 52468U 22049T   23052.28078566  .00019391  00000-0  12339-2 0  9999,2 52468  53.2159  12.9239 0001958  90.5812 269.5404 15.08816272 44318,6917.953,95.439,541.172,538.463,0.0
52468.0,STARLINK-3864,PAYLOAD,2023-02-21 14:41:15,15.0884855,0.0001589,53.2161,11.4364,97.8385,262.2787,0.0017839,0.00028224,0.0,0 STARLINK-3864,1 52468U 22049T   23052.61198346  .00028224  00000-0  17839-2 0  9990,2 52468  53.2161  11.4364 0001589  97.8385 262.2787 15.08848550 44520,6917.854,95.437,540.819,538.62,0.0
52468.0,STARLINK-3864,PAYLOAD,2023-02-22 06:35:05,15.08894372,0.0001223,53.2164,8.4625,103.4752,256.6377,0.0019786,0.00031389,0.0,0 STARLINK-3864,1 52468U 22049T   23053.27436717  .00031389  00000-0  19786-2 0  9999,2 52468  53.2164   8.4625 0001223 103.4752 256.6377 15.08894372 44464,6917.714,95.434,540.425,538.733,0.0
52468.0,STARLINK-3864,PAYLOAD,2023-02-22 20:53:33,15.08852896,0.0001296,53.218,5.787,84.5099,275.604,0.00088183,0.00013779,0.0,0 STARLINK-3864,1 52468U 22049T   23053.87053112  .00013779  00000-0  88183-3 0  9990,2 52468  53.2180   5.7870 0001296  84.5099 275.6040 15.08852896 44550,6917.841,95.437,540.603,538.809,0.0
52468.0,STARLINK-3864,PAYLOAD,2023-02-23 08:01:15,15.0885432,0.000121,53.2172,3.7041,71.051,289.0613,0.0016145,0.0002551,0.0,0 STARLINK-3864,1 52468U 22049T   23054.33421288  .00025510  00000-0  16145-2 0  9999,2 52468  53.2172   3.7041 0001210  71.0510 289.0613 15.08854320 44788,6917.837,95.437,540.539,538.865,0.0
52468.0,STARLINK-3864,PAYLOAD,2023-02-23 22:19:44,15.08850881,0.0001303,53.2171,1.0286,72.4961,287.6173,0.00059924,9.265e-05,0.0,0 STARLINK-3864,1 52468U 22049T   23054.93037116  .00009265  00000-0  59924-3 0  9990,2 52468  53.2171   1.0286 0001303  72.4961 287.6173 15.08850881 44870,6917.847,95.437,540.614,538.811,0.0
52468.0,STARLINK-3864,PAYLOAD,2023-02-24 06:16:39,15.08869146,0.0001487,53.217,359.5405,83.3068,276.8094,0.00091264,0.00014278,0.0,0 STARLINK-3864,1 52468U 22049T   23055.26156282  .00014278  00000-0  91264-3 0  9996,2 52468  53.2170 359.5405 0001487  83.3068 276.8094 15.08869146 44927,6917.791,95.436,540.685,538.628,0.0
52468.0,STARLINK-3864,PAYLOAD,2023-02-24 07:52:01,15.08881905,0.0001438,53.2171,359.2458,77.1683,282.947,0.0012848,0.00020242,0.0,0 STARLINK-3864,1 52468U 22049T   23055.32779988  .00020242  00000-0  12848-2 0  9995,2 52468  53.2171 359.2458 0001438  77.1683 282.9470 15.08881905 44779,6917.752,95.435,540.612,538.623,0.0
52468.0,STARLINK-3864,PAYLOAD,2023-02-24 20:35:07,15.08830599,0.0001373,53.2172,356.8668,85.5121,274.6028,-0.00049986,-8.232e-05,0.0,0 STARLINK-3864,1 52468U 22049T   23055.85772910 -.00008232  00000-0 -49986-3 0  9992,2 52468  53.2172 356.8668 0001373  85.5121 274.6028 15.08830599 45012,6917.909,95.438,540.724,538.824,0.0
52468.0,STARLINK-3864,PAYLOAD,2023-02-25 02:56:40,15.08840113,0.0001422,53.2179,355.6788,98.1153,262.0001,0.00010299,1.352e-05,0.0,0 STARLINK-3864,1 52468U 22049T   23056.12268886  .00001352  00000-0  10299-3 0  9994,2 52468  53.2179 355.6788 0001422  98.1153 262.0001 15.08840113 45058,6917.88,95.438,540.729,538.761,0.0
52468.0,STARLINK-3864,PAYLOAD,2023-02-26 02:47:27,15.08859316,0.0001132,53.2163,351.2176,104.9158,255.196,0.0011216,0.00017617,0.0,0 STARLINK-3864,1 52468U 22049T   23057.11628947  .00017617  00000-0  11216-2 0  9992,2 52468  53.2163 351.2176 0001132 104.9158 255.1960 15.08859316 45202,6917.821,95.436,540.469,538.903,0.0
